{"type": "FeatureCollection", "features": [ {"type": "Feature", "properties": {"norad_id": 66807, "name": "STARLINK-36000", "group": "last-30-days", "lat": -42.228473037016165, "lon": 112.86432196566147, "alt_km": 360.0579950369611, "timestamp": "2025-12-18T15:47:09.960182+00:00", "meta": {"OBJECT_NAME": "STARLINK-36000", "OBJECT_ID": "2025-278S", "EPOCH": "2025-12-18T06:00:02.999808", "MEAN_MOTION": 15.7202163, "ECCENTRICITY": 0.00016061, "INCLINATION": 42.9994, "RA_OF_ASC_NODE": 218.4017, "ARG_OF_PERICENTER": 273.4441, "MEAN_ANOMALY": 197.9742, "EPHEMERIS_TYPE": 0, "CLASSIFICATION_TYPE": "U", "NORAD_CAT_ID": 66807, "ELEMENT_SET_NO": 999, "REV_AT_EPOCH": 390, "BSTAR": -0.016357985, "MEAN_MOTION_DOT": -0.0195333, "MEAN_MOTION_DDOT": 0}, "tle": {"line1": "1 66807U 25278S   25352.25003472 -.01953330  00000+0 -16358-1 0  9990", "line2": "2 66807  42.9994 218.4017 0001606 273.4441 197.9742 15.72021630  3905"}}, "geometry": {"type": "Point", "coordinates": [112.86432196566147, -42.228473037016165]}}, {"type": "Feature", "properties": {"norad_id": 66808, "name": "STARLINK-36071", "group": "last-30-days", "lat": -42.4951825245861, "lon": 115.42546559219527, "alt_km": 360.0392105616165, "timestamp": "2025-12-18T15:47:09.960192+00:00", "meta": {"OBJECT_NAME": "STARLINK-36071", "OBJECT_ID": "2025-278T", "EPOCH": "2025-12-18T06:00:02.999808", "MEAN_MOTION": 15.72021614, "ECCENTRICITY": 0.0001646, "INCLINATION": 42.9993, "RA_OF_ASC_NODE": 218.3969, "ARG_OF_PERICENTER": 273.9253, "MEAN_ANOMALY": 199.4118, "EPHEMERIS_TYPE": 0, "CLASSIFICATION_TYPE": "U", "NORAD_CAT_ID": 66808, "ELEMENT_SET_NO": 999, "REV_AT_EPOCH": 384, "BSTAR": -0.016378247, "MEAN_MOTION_DOT": -0.01955501, "MEAN_MOTION_DDOT": 0}, "tle": {"line1": "1 66808U 25278T   25352.25003472 -.01955501  00000+0 -16378-1 0  9995", "line2": "2 66808  42.9993 218.3969 0001646 273.9253 199.4118 15.72021614  3849"}}, "geometry": {"type": "Point", "coordinates": [115.42546559219527, -42.4951825245861]}}, {"type": "Feature", "properties": {"norad_id": 66809, "name": "STARLINK-35979", "group": "last-30-days", "lat": -42.946637787068774, "lon": 123.20796715642842, "alt_km": 360.1660713013789, "timestamp": "2025-12-18T15:47:09.960202+00:00", "meta": {"OBJECT_NAME": "STARLINK-35979", "OBJECT_ID": "2025-278U", "EPOCH": "2025-12-18T06:00:02.999808", "MEAN_MOTION": 15.72020767, "ECCENTRICITY": 0.00014621, "INCLINATION": 42.9995, "RA_OF_ASC_NODE": 218.3819, "ARG_OF_PERICENTER": 275.8494, "MEAN_ANOMALY": 203.2402, "EPHEMERIS_TYPE": 0, "CLASSIFICATION_TYPE": "U", "NORAD_CAT_ID": 66809, "ELEMENT_SET_NO": 999, "REV_AT_EPOCH": 384, "BSTAR": -0.016373838, "MEAN_MOTION_DOT": -0.01954824, "MEAN_MOTION_DDOT": 0}, "tle": {"line1": "1 66809U 25278U   25352.25003472 -.01954824  00000+0 -16374-1 0  9999", "line2": "2 66809  42.9995 218.3819 0001462 275.8494 203.2402 15.72020767  3848"}}, "geometry": {"type": "Point", "coordinates": [123.20796715642842, -42.946637787068774]}}, {"type": "Feature", "properties": {"norad_id": 66810, "name": "STARLINK-36046", "group": "last-30-days", "lat": -42.704156111039644, "lon": 118.00595618014624, "alt_km": 360.0897673029858, "timestamp": "2025-12-18T15:47:09.960212+00:00", "meta": {"OBJECT_NAME": "STARLINK-36046", "OBJECT_ID": "2025-278V", "EPOCH": "2025-12-18T06:00:02.999808", "MEAN_MOTION": 15.72022362, "ECCENTRICITY": 0.00015705, "INCLINATION": 42.9992, "RA_OF_ASC_NODE": 218.3925, "ARG_OF_PERICENTER": 275.0719, "MEAN_ANOMALY": 200.1799, "EPHEMERIS_TYPE": 0, "CLASSIFICATION_TYPE": "U", "NORAD_CAT_ID": 66810, "ELEMENT_SET_NO": 999, "REV_AT_EPOCH": 361, "BSTAR": -0.016366097, "MEAN_MOTION_DOT": -0.01954212, "MEAN_MOTION_DDOT": 0}, "tle": {"line1": "1 66810U 25278V   25352.25003472 -.01954212  00000+0 -16366-1 0  9993", "line2": "2 66810  42.9992 218.3925 0001570 275.0719 200.1799 15.72022362  3610"}}, "geometry": {"type": "Point", "coordinates": [118.00595618014624, -42.704156111039644]}}, {"type": "Feature", "properties": {"norad_id": 66811, "name": "STARLINK-36045", "group": "last-30-days", "lat": -42.85446981464376, "lon": 120.60091630748413, "alt_km": 360.06764929472865, "timestamp": "2025-12-18T15:47:09.960221+00:00", "meta": {"OBJECT_NAME": "STARLINK-36045", "OBJECT_ID": "2025-278W", "EPOCH": "2025-12-18T06:00:02.999808", "MEAN_MOTION": 15.72027333, "ECCENTRICITY": 0.0001605, "INCLINATION": 42.9989, "RA_OF_ASC_NODE": 218.3872, "ARG_OF_PERICENTER": 275.7551, "MEAN_ANOMALY": 201.4109, "EPHEMERIS_TYPE": 0, "CLASSIFICATION_TYPE": "U", "NORAD_CAT_ID": 66811, "ELEMENT_SET_NO": 999, "REV_AT_EPOCH": 384, "BSTAR": -0.016419831, "MEAN_MOTION_DOT": -0.01960283, "MEAN_MOTION_DDOT": 0}, "tle": {"line1": "1 66811U 25278W   25352.25003472 -.01960283  00000+0 -16420-1 0  9990", "line2": "2 66811  42.9989 218.3872 0001605 275.7551 201.4109 15.72027333  3845"}}, "geometry": {"type": "Point", "coordinates": [120.60091630748413, -42.85446981464376]}}, {"type": "Feature", "properties": {"norad_id": 66812, "name": "STARLINK-36054", "group": "last-30-days", "lat": -42.978167087026044, "lon": 125.81855108750281, "alt_km": 360.104296650522, "timestamp": "2025-12-18T15:47:09.960231+00:00", "meta": {"OBJECT_NAME": "STARLINK-36054", "OBJECT_ID": "2025-278X", "EPOCH": "2025-12-18T06:00:02.999808", "MEAN_MOTION": 15.72027884, "ECCENTRICITY": 0.00015455, "INCLINATION": 42.999, "RA_OF_ASC_NODE": 218.3771, "ARG_OF_PERICENTER": 276.8564, "MEAN_ANOMALY": 204.1447, "EPHEMERIS_TYPE": 0, "CLASSIFICATION_TYPE": "U", "NORAD_CAT_ID": 66812, "ELEMENT_SET_NO": 999, "REV_AT_EPOCH": 384, "BSTAR": -0.016432367, "MEAN_MOTION_DOT": -0.01961598, "MEAN_MOTION_DDOT": 0}, "tle": {"line1": "1 66812U 25278X   25352.25003472 -.01961598  00000+0 -16432-1 0  9994", "line2": "2 66812  42.9990 218.3771 0001545 276.8564 204.1447 15.72027884  3841"}}, "geometry": {"type": "Point", "coordinates": [125.81855108750281, -42.978167087026044]}}, {"type": "Feature", "properties": {"norad_id": 66813, "name": "STARLINK-36042", "group": "last-30-days", "lat": -42.817808417782686, "lon": 131.9586966785536, "alt_km": 353.1651309131221, "timestamp": "2025-12-18T15:47:09.960249+00:00", "meta": {"OBJECT_NAME": "STARLINK-36042", "OBJECT_ID": "2025-278Y", "EPOCH": "2025-12-18T06:00:02.999808", "MEAN_MOTION": 15.72721168, "ECCENTRICITY": 0.00012433, "INCLINATION": 42.9984, "RA_OF_ASC_NODE": 218.3714, "ARG_OF_PERICENTER": 284.0065, "MEAN_ANOMALY": 199.064, "EPHEMERIS_TYPE": 0, "CLASSIFICATION_TYPE": "U", "NORAD_CAT_ID": 66813, "ELEMENT_SET_NO": 999, "REV_AT_EPOCH": 384, "BSTAR": 0.0015824962, "MEAN_MOTION_DOT": 0.0022548, "MEAN_MOTION_DDOT": 0}, "tle": {"line1": "1 66813U 25278Y   25352.25003472  .00225480  00000+0  15825-2 0  9991", "line2": "2 66813  42.9984 218.3714 0001243 284.0065 199.0640 15.72721168  3847"}}, "geometry": {"type": "Point", "coordinates": [131.9586966785536, -42.817808417782686]}}, {"type": "Feature", "properties": {"norad_id": 66814, "name": "STARLINK-35984", "group": "last-30-days", "lat": -41.55611759612214, "lon": 143.82908761411983, "alt_km": 360.00019744916153, "timestamp": "2025-12-18T15:47:09.960259+00:00", "meta": {"OBJECT_NAME": "STARLINK-35984", "OBJECT_ID": "2025-278Z", "EPOCH": "2025-12-18T06:00:02.999808", "MEAN_MOTION": 15.72025217, "ECCENTRICITY": 0.0001611, "INCLINATION": 42.9992, "RA_OF_ASC_NODE": 218.3424, "ARG_OF_PERICENTER": 273.9076, "MEAN_ANOMALY": 220.5132, "EPHEMERIS_TYPE": 0, "CLASSIFICATION_TYPE": "U", "NORAD_CAT_ID": 66814, "ELEMENT_SET_NO": 999, "REV_AT_EPOCH": 393, "BSTAR": -0.016403069, "MEAN_MOTION_DOT": -0.01958361, "MEAN_MOTION_DDOT": 0}, "tle": {"line1": "1 66814U 25278Z   25352.25003472 -.01958361  00000+0 -16403-1 0  9998", "line2": "2 66814  42.9992 218.3424 0001611 273.9076 220.5132 15.72025217  3931"}}, "geometry": {"type": "Point", "coordinates": [143.82908761411983, -41.55611759612214]}}, {"type": "Feature", "properties": {"norad_id": 66815, "name": "STARLINK-35985", "group": "last-30-days", "lat": -41.9308698369294, "lon": 141.31745374959993, "alt_km": 360.0405469990483, "timestamp": "2025-12-18T15:47:09.960269+00:00", "meta": {"OBJECT_NAME": "STARLINK-35985", "OBJECT_ID": "2025-278AA", "EPOCH": "2025-12-18T06:00:02.999808", "MEAN_MOTION": 15.72022932, "ECCENTRICITY": 0.00015752, "INCLINATION": 42.9992, "RA_OF_ASC_NODE": 218.3466, "ARG_OF_PERICENTER": 275.2499, "MEAN_ANOMALY": 217.2593, "EPHEMERIS_TYPE": 0, "CLASSIFICATION_TYPE": "U", "NORAD_CAT_ID": 66815, "ELEMENT_SET_NO": 999, "REV_AT_EPOCH": 393, "BSTAR": -0.016414709, "MEAN_MOTION_DOT": -0.0195939, "MEAN_MOTION_DDOT": 0}, "tle": {"line1": "1 66815U 25278AA  25352.25003472 -.01959390  00000+0 -16415-1 0  9995", "line2": "2 66815  42.9992 218.3466 0001575 275.2499 217.2593 15.72022932  3936"}}, "geometry": {"type": "Point", "coordinates": [141.31745374959993, -41.9308698369294]}}, {"type": "Feature", "properties": {"norad_id": 66816, "name": "STARLINK-36098", "group": "last-30-days", "lat": -42.86372334796344, "lon": 131.03520793550382, "alt_km": 360.03475342887396, "timestamp": "2025-12-18T15:47:09.960282+00:00", "meta": {"OBJECT_NAME": "STARLINK-36098", "OBJECT_ID": "2025-278AB", "EPOCH": "2025-12-18T06:00:02.999808", "MEAN_MOTION": 15.72020878, "ECCENTRICITY": 0.00016135, "INCLINATION": 42.9991, "RA_OF_ASC_NODE": 218.3672, "ARG_OF_PERICENTER": 275.2205, "MEAN_ANOMALY": 209.6165, "EPHEMERIS_TYPE": 0, "CLASSIFICATION_TYPE": "U", "NORAD_CAT_ID": 66816, "ELEMENT_SET_NO": 999, "REV_AT_EPOCH": 368, "BSTAR": -0.016345904, "MEAN_MOTION_DOT": -0.01952004, "MEAN_MOTION_DDOT": 0}, "tle": {"line1": "1 66816U 25278AB  25352.25003472 -.01952004  00000+0 -16346-1 0  9994", "line2": "2 66816  42.9991 218.3672 0001613 275.2205 209.6165 15.72020878  3682"}}, "geometry": {"type": "Point", "coordinates": [131.03520793550382, -42.86372334796344]}}]}